[{"OBJECT_NAME":"SATORO-T3","OBJECT_ID":"2025-135BP","EPOCH":"2026-03-09T21:54:53.647488","MEAN_MOTION":14.93899407,"ECCENTRICITY":0.00037302,"INCLINATION":97.7584,"RA_OF_ASC_NODE":184.5547,"ARG_OF_PERICENTER":312.3588,"MEAN_ANOMALY":47.7315,"EPHEMERIS_TYPE":0,"CLASSIFICATION_TYPE":"U","NORAD_CAT_ID":64589,"ELEMENT_SET_NO":999,"REV_AT_EPOCH":3908,"BSTAR":0.00028825982,"MEAN_MOTION_DOT":3.008e-5,"MEAN_MOTION_DDOT":0},{"OBJECT_NAME":"NOAA 17 DEB","OBJECT_ID":"2002-032AW","EPOCH":"2026-03-09T06:42:02.833344","MEAN_MOTION":15.0155296,"ECCENTRICITY":0.0036655,"INCLINATION":98.9692,"RA_OF_ASC_NODE":191.508,"ARG_OF_PERICENTER":264.8759,"MEAN_ANOMALY":94.8277,"EPHEMERIS_TYPE":0,"CLASSIFICATION_TYPE":"U","NORAD_CAT_ID":48713,"ELEMENT_SET_NO":999,"REV_AT_EPOCH":26502,"BSTAR":0.0031489084,"MEAN_MOTION_DOT":0.00041514,"MEAN_MOTION_DDOT":0}]
